ONEWEB-0667             
1 55827U 23029AH  26160.37621125  .00000094  00000+0  19820-3 0  9990
2 55827  87.9194 275.9866 0001813  96.4958 263.6382 13.20771572160118
ONEWEB-0669             
1 55828U 23029AJ  26160.37115778 -.00000003  00000+0 -39697-4 0  9990
2 55828  87.9189 275.9994 0002374  90.4310 269.7096 13.20771094160112
ONEWEB-0670             
1 55829U 23029AK  26160.37216245  .00000027  00000+0  39386-4 0  9991
2 55829  87.8950 291.2995 0001768  86.3355 273.7977 13.14502907158409
ONEWEB-0671             
1 55830U 23029AL  26160.48181189  .00000031  00000+0  46126-4 0  9998
2 55830  87.9164 306.5113 0001689  93.7810 266.3516 13.19723973157882
ONEWEB-0672             
1 55831U 23029AM  26160.36610166  .00000023  00000+0  24715-4 0  9999
2 55831  87.9188 275.9936 0002210 101.5687 258.5695 13.20772202160114
ONEWEB-0673             
1 55832U 23029AN  26160.45892108  .00000077  00000+0  16080-3 0  9992
2 55832  87.9172 306.5070 0001742  93.4516 266.6816 13.19726701157883
ONEWEB-0674             
1 55833U 23029AP  26160.34044672  .00000154  00000+0  38206-3 0  9996
2 55833  87.8946 291.2829 0001819  86.4151 273.7187 13.14503703158382
ONEWEB-0675             
1 55834U 23029AQ  26160.39810845 -.00000017  00000+0 -75134-4 0  9997
2 55834  87.9163 306.5294 0001985 104.6470 255.4883 13.19724506157898
ONEWEB-0720             
1 55835U 23029AR  26160.46602132  .00000163  00000+0  37507-3 0  9995
2 55835  87.9161 306.5160 0001550 100.1589 259.9719 13.19724781157824
ONEWEB-0537             
1 56046U 23043A   26160.44290904  .00000046  00000+0  86139-4 0  9990
2 56046  87.9100 230.3091 0002288 101.3741 258.7647 13.16594379157946
ONEWEB-0538             
1 56047U 23043B   26160.43657720  .00000033  00000+0  53975-4 0  9991
2 56047  87.9101 230.3126 0002067 106.4794 253.6564 13.16594822157952
ONEWEB-0546             
1 56048U 23043C   26160.42391313  .00000046  00000+0  87560-4 0  9995
2 56048  87.9103 230.3151 0002732 102.1090 258.0347 13.16594882157947
ONEWEB-0547             
1 56049U 23043D   26160.52708993  .00000013  00000+0  39148-6 0  9998
2 56049  87.9261 245.4977 0001896 103.2472 256.8873 13.21825590157211
ONEWEB-0548             
1 56050U 23043E   26160.22045302 -.00000054  00000+0 -17391-3 0  9995
2 56050  87.9099 230.3525 0002147  86.4100 273.7277 13.16596092157913
ONEWEB-0549             
1 56051U 23043F   26160.52120696 -.00000008  00000+0 -50265-4 0  9996
2 56051  87.9256 245.5059 0001971 110.7229 249.4117 13.21825443157213
ONEWEB-0550             
1 56052U 23043G   26160.28067147  .00000077  00000+0  15577-3 0  9991
2 56052  87.9256 245.5512 0001982  93.6765 266.4595 13.21825810157187
ONEWEB-0551             
1 56053U 23043H   26160.54949963 -.00000054  00000+0 -17669-3 0  9997
2 56053  87.8999 260.7479 0001788 110.1665 249.9658 13.15549371155395
ONEWEB-0552             
1 56054U 23043J   26160.50269820  .00000109  00000+0  23249-3 0  9991
2 56054  87.9253 245.5128 0001830  98.9718 261.1623 13.21828034157216
ONEWEB-0553             
1 56055U 23043K   26160.43024105  .00000051  00000+0  99154-4 0  9994
2 56055  87.9102 230.3143 0002450  97.7705 262.3704 13.16594826157958
ONEWEB-0554             
1 56056U 23043L   26160.49355410 -.00004963  00000+0 -13019-1 0  9998
2 56056  87.9098 230.3110 0002294  80.2111 279.9279 13.16610892157943
ONEWEB-0555             
1 56057U 23043M   26160.45556390  .00000006  00000+0 -17889-4 0  9990
2 56057  87.9103 230.3066 0002694 100.0362 260.1073 13.16596200157944
ONEWEB-0557             
1 56058U 23043N   26160.46981985  .00000003  00000+0 -25937-4 0  9994
2 56058  87.9100 230.3139 0003004  79.3799 280.7671 13.16593876157949
ONEWEB-0558             
1 56059U 23043P   26160.49596747  .00000103  00000+0  21833-3 0  9996
2 56059  87.9256 245.5088 0002063 109.0604 251.0753 13.21827578157221
ONEWEB-0559             
1 56060U 23043Q   26160.48418628  .00000130  00000+0  28294-3 0  9996
2 56060  87.9258 245.5060 0001841 103.8830 256.2509 13.21827670157231
ONEWEB-0566             
1 56061U 23043R   26160.47747500  .00000044  00000+0  75435-4 0  9994
2 56061  87.9255 245.5052 0001800 107.1319 253.0012 13.21826872157219
ONEWEB-0568             
1 56062U 23043S   26160.48724230  .00000075  00000+0  16207-3 0  9996
2 56062  87.9098 230.3001 0002341  98.7809 261.3587 13.16594160157968
ONEWEB-0574             
1 56063U 23043T   26160.47073330  .00000019  00000+0  15077-4 0  9997
2 56063  87.9265 245.5089 0002149  94.8238 265.3141 13.21827495157256
ONEWEB-0575             
1 56064U 23043U   26159.72094050 -.00000036  00000+0 -12697-3 0  9991
2 56064  87.9100 230.4488 0002372  91.3575 268.7827 13.16593564157850
ONEWEB-0576             
1 56065U 23043V   26160.46190213 -.00000021  00000+0 -87622-4 0  9998
2 56065  87.9102 230.3092 0002227  93.8818 266.2568 13.16593806157943
ONEWEB-0577             
1 56066U 23043W   26160.46823986  .00000026  00000+0  33860-4 0  9997
2 56066  87.9100 230.3056 0002468  81.2735 278.8676 13.16593293157970
