OBJECT_NAME,OBJECT_ID,EPOCH,MEAN_MOTION,ECCENTRICITY,INCLINATION,RA_OF_ASC_NODE,ARG_OF_PERICENTER,MEAN_ANOMALY,EPHEMERIS_TYPE,CLASSIFICATION_TYPE,NORAD_CAT_ID,ELEMENT_SET_NO,REV_AT_EPOCH,BSTAR,MEAN_MOTION_DOT,MEAN_MOTION_DDOT
ONEWEB-0667,2023-029AH,2026-06-09T09:01:44.652000,13.20771572,.00018139,87.9194,275.9866,96.4958,263.6382,0,U,55827,999,16011,.19819552E-3,.94E-6,0
ONEWEB-0669,2023-029AJ,2026-06-09T08:54:28.032192,13.20771094,.00023744,87.9189,275.9994,90.4310,269.7096,0,U,55828,999,16011,-.39697313E-4,-.3E-7,0
ONEWEB-0670,2023-029AK,2026-06-09T08:55:54.835680,13.14502907,.00017689,87.8950,291.2995,86.3355,273.7977,0,U,55829,999,15840,.39385873E-4,.27E-6,0
ONEWEB-0671,2023-029AL,2026-06-09T11:33:48.547296,13.19723973,.00016896,87.9164,306.5113,93.7810,266.3516,0,U,55830,999,15788,.46126256E-4,.31E-6,0
ONEWEB-0672,2023-029AM,2026-06-09T08:47:11.183424,13.20772202,.00022102,87.9188,275.9936,101.5687,258.5695,0,U,55831,999,16011,.24715324E-4,.23E-6,0
ONEWEB-0673,2023-029AN,2026-06-09T11:00:50.781312,13.19726701,.00017424,87.9172,306.5070,93.4516,266.6816,0,U,55832,999,15788,.16080242E-3,.77E-6,0
ONEWEB-0674,2023-029AP,2026-06-09T08:10:14.596608,13.14503703,.00018195,87.8946,291.2829,86.4151,273.7187,0,U,55833,999,15838,.38206123E-3,.154E-5,0
ONEWEB-0675,2023-029AQ,2026-06-09T09:33:16.570080,13.19724506,.00019856,87.9163,306.5294,104.6470,255.4883,0,U,55834,999,15789,-.75133783E-4,-.17E-6,0
ONEWEB-0720,2023-029AR,2026-06-09T11:11:04.242048,13.19724781,.00015503,87.9161,306.5160,100.1589,259.9719,0,U,55835,999,15782,.3750745E-3,.163E-5,0
ONEWEB-0537,2023-043A,2026-06-09T10:37:47.341056,13.16594379,.00022888,87.9100,230.3091,101.3741,258.7647,0,U,56046,999,15794,.86138996E-4,.46E-6,0
ONEWEB-0538,2023-043B,2026-06-09T10:28:40.270080,13.16594822,.0002067,87.9101,230.3126,106.4794,253.6564,0,U,56047,999,15795,.5397501E-4,.33E-6,0
ONEWEB-0546,2023-043C,2026-06-09T10:10:26.094432,13.16594882,.00027324,87.9103,230.3151,102.1090,258.0347,0,U,56048,999,15794,.87560118E-4,.46E-6,0
ONEWEB-0547,2023-043D,2026-06-09T12:39:00.569952,13.21825590,.00018967,87.9261,245.4977,103.2472,256.8873,0,U,56049,999,15721,.39148E-6,.13E-6,0
ONEWEB-0548,2023-043E,2026-06-09T05:17:27.140928,13.16596092,.0002147,87.9099,230.3525,86.4100,273.7277,0,U,56050,999,15791,-.17391E-3,-.54E-6,0
ONEWEB-0549,2023-043F,2026-06-09T12:30:32.281344,13.21825443,.0001971,87.9256,245.5059,110.7229,249.4117,0,U,56051,999,15721,-.50264815E-4,-.8E-7,0
ONEWEB-0550,2023-043G,2026-06-09T06:44:10.015008,13.21825810,.0001982,87.9256,245.5512,93.6765,266.4595,0,U,56052,999,15718,.15577E-3,.77E-6,0
ONEWEB-0551,2023-043H,2026-06-09T13:11:16.768032,13.15549371,.00017881,87.8999,260.7479,110.1665,249.9658,0,U,56053,999,15539,-.17669419E-3,-.54E-6,0
ONEWEB-0552,2023-043J,2026-06-09T12:03:53.124480,13.21828034,.00018303,87.9253,245.5128,98.9718,261.1623,0,U,56054,999,15721,.23248954E-3,.109E-5,0
ONEWEB-0553,2023-043K,2026-06-09T10:19:32.826720,13.16594826,.000245,87.9102,230.3143,97.7705,262.3704,0,U,56055,999,15795,.99153936E-4,.51E-6,0
ONEWEB-0554,2023-043L,2026-06-09T11:50:43.074240,13.16610892,.0002294,87.9098,230.3110,80.2111,279.9279,0,U,56056,999,15794,-.1301897E-1,-.4963E-4,0
ONEWEB-0555,2023-043M,2026-06-09T10:56:00.720960,13.16596200,.00026942,87.9103,230.3066,100.0362,260.1073,0,U,56057,999,15794,-.17888552E-4,.6E-7,0
ONEWEB-0557,2023-043N,2026-06-09T11:16:32.435040,13.16593876,.00030041,87.9100,230.3139,79.3799,280.7671,0,U,56058,999,15794,-.25936931E-4,.3E-7,0
ONEWEB-0558,2023-043P,2026-06-09T11:54:11.589408,13.21827578,.00020635,87.9256,245.5088,109.0604,251.0753,0,U,56059,999,15722,.21832731E-3,.103E-5,0
ONEWEB-0559,2023-043Q,2026-06-09T11:37:13.694592,13.21827670,.00018412,87.9258,245.5060,103.8830,256.2509,0,U,56060,999,15723,.28294319E-3,.13E-5,0
ONEWEB-0566,2023-043R,2026-06-09T11:27:33.840000,13.21826872,.00018003,87.9255,245.5052,107.1319,253.0012,0,U,56061,999,15721,.7543493E-4,.44E-6,0
ONEWEB-0568,2023-043S,2026-06-09T11:41:37.734720,13.16594160,.00023412,87.9098,230.3001,98.7809,261.3587,0,U,56062,999,15796,.16206844E-3,.75E-6,0
ONEWEB-0574,2023-043T,2026-06-09T11:17:51.357120,13.21827495,.00021491,87.9265,245.5089,94.8238,265.3141,0,U,56063,999,15725,.15077343E-4,.19E-6,0
ONEWEB-0575,2023-043U,2026-06-08T17:18:09.259200,13.16593564,.00023723,87.9100,230.4488,91.3575,268.7827,0,U,56064,999,15785,-.12696556E-3,-.36E-6,0
ONEWEB-0576,2023-043V,2026-06-09T11:05:08.344032,13.16593806,.00022279,87.9102,230.3092,93.8818,266.2568,0,U,56065,999,15794,-.87621884E-4,-.21E-6,0
ONEWEB-0577,2023-043W,2026-06-09T11:14:15.923904,13.16593293,.00024681,87.9100,230.3056,81.2735,278.8676,0,U,56066,999,15797,.3385974E-4,.26E-6,0
